[{"OBJECT_NAME":"STARLINK-5220","OBJECT_ID":"2022-175C","EPOCH":"2026-03-09T22:29:06.602208","MEAN_MOTION":15.08853424,"ECCENTRICITY":0.0001541,"INCLINATION":53.2179,"RA_OF_ASC_NODE":43.2008,"ARG_OF_PERICENTER":93.5454,"MEAN_ANOMALY":266.5714,"EPHEMERIS_TYPE":0,"CLASSIFICATION_TYPE":"U","NORAD_CAT_ID":54760,"ELEMENT_SET_NO":999,"REV_AT_EPOCH":17995,"BSTAR":-0.00024939043,"MEAN_MOTION_DOT":-4.256e-5,"MEAN_MOTION_DDOT":0},{"OBJECT_NAME":"LEMUR-2-ESPERANZA","OBJECT_ID":"2025-061B","EPOCH":"2026-03-09T20:59:51.017856","MEAN_MOTION":15.12770808,"ECCENTRICITY":0.00169494,"INCLINATION":97.5568,"RA_OF_ASC_NODE":45.1407,"ARG_OF_PERICENTER":244.877,"MEAN_ANOMALY":115.0702,"EPHEMERIS_TYPE":0,"CLASSIFICATION_TYPE":"U","NORAD_CAT_ID":63352,"ELEMENT_SET_NO":999,"REV_AT_EPOCH":5257,"BSTAR":0.00034972806,"MEAN_MOTION_DOT":6.09e-5,"MEAN_MOTION_DDOT":0}]
